{"id852426305":{"id":852426305,"lat":17.0639018,"lon":-96.7315409,"tags":{"amenity":"marketplace","name":"Mercado IV Centenario","opening_hours":"Mo-Su,PH 06:00-18:00","shop":"market"}},"id901200839":{"id":901200839,"lat":51.4974511,"lon":-0.0810574,"tags":{"amenity":"marketplace","fish":"yes","flickr":"https://www.flickr.com/photos/bagelmouse/5007515161/","meat":"yes","name":"Bermondsey Farmers' Market","opening_hours":"Sa 10:00-14:00","organic":"yes","shop":"market","vegetables":"yes","website":"https://www.lfm.org.uk/markets/bermondsey/"}},"id901200844":{"id":901200844,"lat":51.4907669,"lon":-0.1527849,"tags":{"amenity":"marketplace","fish":"yes","meat":"yes","name":"Pimlico Road Farmers' Market","opening_hours":"Sa 09:00-13:00","operator":"London Farmers' Markets","organic":"yes","shop":"market","vegetables":"yes","website":"https://www.lfm.org.uk/markets/pimlico-road/"}},"id901200849":{"id":901200849,"lat":51.4383957,"lon":-0.1956189,"tags":{"amenity":"marketplace","fish":"yes","meat":"yes","name":"Wimbledon Farmers' Market","opening_hours":"Sa 09:00-13:00","organic":"yes","shop":"market","vegetables":"yes","website":"https://www.lfm.org.uk/markets/wimbledon/"}},"id902513070":{"id":902513070,"lat":51.5098577,"lon":-0.323423,"tags":{"amenity":"marketplace","fish":"yes","meat":"yes","name":"Ealing Farmers' Market","opening_hours":"Sa 09:00-13:00","organic":"yes","shop":"market","vegetables":"yes","website":"https://www.lfm.org.uk/markets/ealing/"}},"id902513132":{"id":902513132,"lat":51.5591879,"lon":-0.1508913,"tags":{"amenity":"marketplace","fish":"yes","meat":"yes","name":"Parliament Hill Farmers' Market","opening_hours":"Sa 10:00-14:00","organic":"yes","shop":"market","vegetables":"yes","website":"https://www.lfm.org.uk/markets/parliament-hill/"}},"id902513135":{"id":902513135,"lat":51.5194229,"lon":-0.0845149,"tags":{"amenity":"marketplace","description":"Broadgate market is held every other week, see the web site for further details.","fish":"yes","meat":"yes","name":"Broadgate Farmers' Market","opening_hours":"Th 08:00-14:00","organic":"yes","shop":"market","vegetables":"yes","website":"https://www.lfm.org.uk/markets/broadgate/"}},"id902513176":{"id":902513176,"lat":51.5193068,"lon":-0.1530012,"tags":{"amenity":"marketplace","fish":"yes","meat":"yes","name":"Marylebone Farmers' Market","opening_hours":"Su 10:00-14:00","organic":"yes","shop":"market","vegetables":"yes","website":"https://www.lfm.org.uk/markets/marylebone/"}},"id902513190":{"id":902513190,"lat":51.5084879,"lon":-0.1956314,"tags":{"amenity":"marketplace","fish":"yes","meat":"yes","name":"Notting Hill Farmers' Market","opening_hours":"Sa 09:00-13:00","organic":"yes","shop":"market","vegetables":"yes","website":"https://www.lfm.org.uk/markets/notting-hill/"}},"id4594525991":{"id":4594525991,"lat":-2.8031182,"lon":33.9879848,"tags":{"amenity":"marketplace","name":"Market","shop":"market"}},"id4795819560":{"id":4795819560,"lat":53.4285288,"lon":-2.8032296,"tags":{"amenity":"marketplace","name":"Prescot Indoor Market","shop":"market"}},"id4802608160":{"id":4802608160,"lat":53.5520437,"lon":-1.4790907,"tags":{"amenity":"marketplace","name":"Meat And Fish Market","shop":"market"}}}